[{"OBJECT_NAME":"STARLINK-2574","OBJECT_ID":"2021-038AU","EPOCH":"2026-03-09T22:10:14.098656","MEAN_MOTION":15.30176927,"ECCENTRICITY":0.00012629,"INCLINATION":53.1604,"RA_OF_ASC_NODE":333.8477,"ARG_OF_PERICENTER":111.0392,"MEAN_ANOMALY":249.0744,"EPHEMERIS_TYPE":0,"CLASSIFICATION_TYPE":"U","NORAD_CAT_ID":48395,"ELEMENT_SET_NO":999,"REV_AT_EPOCH":26866,"BSTAR":0.00012701602,"MEAN_MOTION_DOT":3.402e-5,"MEAN_MOTION_DDOT":0},{"OBJECT_NAME":"XCUBE-1","OBJECT_ID":"2024-247Z","EPOCH":"2026-03-09T11:35:28.885344","MEAN_MOTION":15.27910558,"ECCENTRICITY":0.00052355,"INCLINATION":44.9938,"RA_OF_ASC_NODE":117.7807,"ARG_OF_PERICENTER":331.1499,"MEAN_ANOMALY":28.9094,"EPHEMERIS_TYPE":0,"CLASSIFICATION_TYPE":"U","NORAD_CAT_ID":62400,"ELEMENT_SET_NO":999,"REV_AT_EPOCH":6770,"BSTAR":0.00036224252,"MEAN_MOTION_DOT":9.773e-5,"MEAN_MOTION_DDOT":0}]
